OBJECT_NAME,OBJECT_ID,EPOCH,MEAN_MOTION,ECCENTRICITY,INCLINATION,RA_OF_ASC_NODE,ARG_OF_PERICENTER,MEAN_ANOMALY,EPHEMERIS_TYPE,CLASSIFICATION_TYPE,NORAD_CAT_ID,ELEMENT_SET_NO,REV_AT_EPOCH,BSTAR,MEAN_MOTION_DOT,MEAN_MOTION_DDOT
SKYSAT-C1,2016-040C,2026-06-12T01:41:42.074304,15.36214421,.00038819,96.9570,195.0679,67.9910,292.1748,0,U,41601,999,55708,.23532924E-3,.8233E-4,0
LAPAN-A3,2016-040E,2026-06-12T07:06:05.723712,15.33074342,.00114297,97.1483,159.6023,41.9491,318.2625,0,U,41603,999,55406,.10605102E-3,.3319E-4,0
GAOFEN-3,2016-049A,2026-06-12T07:07:31.447200,14.42215197,.00012856,98.4013,171.1566,99.3897,260.7438,0,U,41727,999,51794,.544799E-4,.136E-5,0
SKYSAT-C4,2016-058B,2026-06-12T00:47:50.731584,15.48426086,.00009995,96.9177,185.0215,118.5945,241.5407,0,U,41771,999,54467,.2898099E-3,.15294E-3,0
SKYSAT-C5,2016-058C,2026-06-12T01:58:50.007936,15.34397832,.00015841,97.0478,203.9505,349.6001,10.5210,0,U,41772,999,54296,.21574737E-3,.7112E-4,0
SKYSAT-C2,2016-058D,2026-06-12T00:04:24.080736,15.41953046,.00050146,97.0173,185.2931,82.1359,278.0458,0,U,41773,999,54425,.26905305E-3,.11377E-3,0
SKYSAT-C3,2016-058E,2026-06-12T01:13:44.219136,15.52319154,.00017466,96.9009,194.0967,85.4361,274.7093,0,U,41774,999,54531,.36317098E-3,.22038E-3,0
ALSAT-1B,2016-059C,2026-06-12T06:41:32.550144,14.72272407,.00078383,97.7753,172.2543,238.4329,121.6115,0,U,41785,999,51985,.10407119E-3,.61E-5,0
PATHFINDER 1,2016-059E,2026-06-12T05:28:00.835680,14.67657930,.00274354,97.8167,162.7278,219.8560,140.0631,0,U,41787,999,51898,.10400912E-3,.548E-5,0
SCATSAT 1,2016-059H,2026-06-12T03:23:00.576096,14.79514841,.00532585,98.1191,226.8549,264.1944,95.3194,0,U,41790,999,10084,.12040955E-3,.864E-5,0
GOKTURK 1A,2016-073A,2026-06-12T07:41:43.785888,14.62770776,.00014491,98.1259,58.0713,76.3363,283.8000,0,U,41875,999,50811,.56523408E-4,.242E-5,0
RESOURCESAT-2A,2016-074A,2026-06-12T06:50:07.712736,14.21613615,.00033522,98.7527,236.8291,92.4209,267.7352,0,U,41877,999,49360,-.97732442E-4,-.258E-5,0
CARTOSAT-2D,2017-008A,2026-06-12T05:15:02.547072,15.19297488,.00035978,97.4117,222.6170,252.4975,107.5867,0,U,41948,999,51682,.20645078E-3,.429E-4,0
SENTINEL-2B,2017-013A,2026-06-12T05:49:07.896864,14.30815512,.00011857,98.5691,238.0865,86.4120,273.7198,0,U,42063,999,48393,.29382553E-4,.33E-6,0
CARTOSAT-2E,2017-036C,2026-06-12T05:40:28.499808,15.19217541,.00029598,97.4283,223.1202,341.9854,18.1275,0,U,42767,999,49739,.23397756E-3,.4859E-4,0
FORMOSAT-5,2017-049A,2026-06-12T05:24:40.309056,14.50897073,.00127053,98.2253,238.6453,98.0178,262.2459,0,U,42920,999,46595,.43275369E-4,.127E-5,0
SENTINEL-5P,2017-064A,2026-06-12T06:25:43.070304,14.19518220,.0000984,98.7926,105.4341,83.5871,276.5416,0,U,42969,999,44886,.33919706E-4,.27E-6,0
SKYSAT-C11,2017-068A,2026-06-11T22:02:24.099072,15.57622956,.000087,97.4339,311.5213,88.8932,271.2423,0,U,42987,999,48242,.33268148E-3,.24501E-3,0
SKYSAT-C10,2017-068B,2026-06-12T04:57:05.272128,15.34556791,.00011838,97.4491,300.0056,93.4394,266.6984,0,U,42988,999,48159,.29823588E-3,.9906E-4,0
SKYSAT-C9,2017-068C,2026-06-12T07:19:55.742592,15.41443735,.00091866,97.4412,300.9941,148.5005,211.6793,0,U,42989,999,48200,.33539523E-3,.13975E-3,0
SKYSAT-C8,2017-068D,2026-06-12T07:34:13.278144,15.36883359,.00015084,97.4508,299.8969,97.2295,262.9121,0,U,42990,999,48156,.30869322E-3,.11052E-3,0
SKYSAT-C7,2017-068E,2026-06-12T07:24:48.032064,15.36832221,.00071494,97.4520,300.8795,120.6834,239.5116,0,U,42991,999,48162,.31602582E-3,.11306E-3,0
SKYSAT-C6,2017-068F,2026-06-12T02:59:18.368160,15.34122855,.00041976,97.4555,300.6809,150.6672,209.4807,0,U,42992,999,48154,.26052978E-3,.8525E-4,0
CARTOSAT-2F,2018-004A,2026-06-12T06:26:37.725216,15.19176919,.00003315,97.4796,222.9508,275.9146,84.2051,0,U,43111,999,46658,.19708271E-3,.4076E-4,0
GAOFEN-1 02,2018-031A,2026-06-12T06:48:10.487808,14.76450196,.00040887,98.0531,225.8242,45.9387,314.2159,0,U,43259,999,44197,.99138684E-4,.638E-5,0
GAOFEN-1 03,2018-031B,2026-06-12T06:16:46.006176,14.76462453,.00038149,98.0524,225.6613,88.8988,271.2658,0,U,43260,999,44196,.10410777E-3,.673E-5,0
GAOFEN-1 04,2018-031D,2026-06-12T07:19:21.616320,14.76471221,.00022417,98.0532,225.8946,86.5160,273.6306,0,U,43262,999,44196,.39017938E-4,.22E-5,0
SENTINEL-3B,2018-039A,2026-06-11T10:32:13.596000,14.26740095,.0000809,98.6248,230.0537,80.8461,279.2811,0,U,43437,999,42330,.49397E-4,.76E-6,0
GAOFEN-5 01,2018-043A,2026-06-12T04:44:55.003776,14.60602117,.00030352,98.4567,134.6794,92.1360,268.0187,0,U,43461,999,43096,.70862222E-4,.295E-5,0
GAOFEN-6,2018-048A,2026-06-12T06:14:12.400800,14.76591188,.00115545,97.8549,226.1360,183.2269,176.8869,0,U,43484,999,43266,-.15833267E-4,-.161E-5,0
