SKYSAT-C1               
1 41601U 16040C   26163.07062586  .00008233  00000+0  23533-3 0  9999
2 41601  96.9570 195.0679 0003881  67.9910 292.1748 15.36214421557086
LAPAN-A3                
1 41603U 16040E   26163.29589958  .00003319  00000+0  10605-3 0  9998
2 41603  97.1483 159.6023 0011429  41.9491 318.2625 15.33074342554068
GAOFEN-3                
1 41727U 16049A   26163.29689175  .00000136  00000+0  54480-4 0  9990
2 41727  98.4013 171.1566 0001285  99.3897 260.7438 14.42215197517948
SKYSAT-C4               
1 41771U 16058B   26163.03322606  .00015294  00000+0  28981-3 0  9991
2 41771  96.9177 185.0215 0000999 118.5945 241.5407 15.48426086544676
SKYSAT-C5               
1 41772U 16058C   26163.08252324  .00007112  00000+0  21575-3 0  9998
2 41772  97.0478 203.9505 0001584 349.6001  10.5210 15.34397832542963
SKYSAT-C2               
1 41773U 16058D   26163.00305649  .00011377  00000+0  26905-3 0  9990
2 41773  97.0173 185.2931 0005014  82.1359 278.0458 15.41953046544250
SKYSAT-C3               
1 41774U 16058E   26163.05120624  .00022038  00000+0  36317-3 0  9998
2 41774  96.9009 194.0967 0001746  85.4361 274.7093 15.52319154545315
ALSAT-1B                
1 41785U 16059C   26163.27884896  .00000610  00000+0  10407-3 0  9997
2 41785  97.7753 172.2543 0007838 238.4329 121.6115 14.72272407519857
PATHFINDER 1            
1 41787U 16059E   26163.22778745  .00000548  00000+0  10401-3 0  9993
2 41787  97.8167 162.7278 0027435 219.8560 140.0631 14.67657930518986
SCATSAT 1               
1 41790U 16059H   26163.14097889  .00000864  00000+0  12041-3 0  9994
2 41790  98.1191 226.8549 0053258 264.1944  95.3194 14.79514841100849
GOKTURK 1A              
1 41875U 16073A   26163.32064567  .00000242  00000+0  56523-4 0  9995
2 41875  98.1259  58.0713 0001449  76.3363 283.8000 14.62770776508114
RESOURCESAT-2A          
1 41877U 16074A   26163.28481149 -.00000258  00000+0 -97732-4 0  9998
2 41877  98.7527 236.8291 0003352  92.4209 267.7352 14.21613615493601
CARTOSAT-2D             
1 41948U 17008A   26163.21877948  .00004290  00000+0  20645-3 0  9990
2 41948  97.4117 222.6170 0003597 252.4975 107.5867 15.19297488516825
SENTINEL-2B             
1 42063U 17013A   26163.24245251  .00000033  00000+0  29383-4 0  9994
2 42063  98.5691 238.0865 0001185  86.4120 273.7198 14.30815512483937
CARTOSAT-2E             
1 42767U 17036C   26163.23644097  .00004859  00000+0  23398-3 0  9999
2 42767  97.4283 223.1202 0002959 341.9854  18.1275 15.19217541497394
FORMOSAT-5              
1 42920U 17049A   26163.22546654  .00000127  00000+0  43275-4 0  9994
2 42920  98.2253 238.6453 0012705  98.0178 262.2459 14.50897073465950
SENTINEL-5P             
1 42969U 17064A   26163.26785961  .00000027  00000+0  33920-4 0  9999
2 42969  98.7926 105.4341 0000984  83.5871 276.5416 14.19518220448868
SKYSAT-C11              
1 42987U 17068A   26162.91833448  .00024501  00000+0  33268-3 0  9995
2 42987  97.4339 311.5213 0000870  88.8932 271.2423 15.57622956482425
SKYSAT-C10              
1 42988U 17068B   26163.20631102  .00009906  00000+0  29824-3 0  9997
2 42988  97.4491 300.0056 0001183  93.4394 266.6984 15.34556791481590
SKYSAT-C9               
1 42989U 17068C   26163.30550628  .00013975  00000+0  33540-3 0  9993
2 42989  97.4412 300.9941 0009186 148.5005 211.6793 15.41443735482004
SKYSAT-C8               
1 42990U 17068D   26163.31543146  .00011052  00000+0  30869-3 0  9998
2 42990  97.4508 299.8969 0001508  97.2295 262.9121 15.36883359481567
SKYSAT-C7               
1 42991U 17068E   26163.30888926  .00011306  00000+0  31603-3 0  9995
2 42991  97.4520 300.8795 0007149 120.6834 239.5116 15.36832221481622
SKYSAT-C6               
1 42992U 17068F   26163.12451815  .00008525  00000+0  26053-3 0  9991
2 42992  97.4555 300.6809 0004197 150.6672 209.4807 15.34122855481545
CARTOSAT-2F             
1 43111U 18004A   26163.26849219  .00004076  00000+0  19708-3 0  9996
2 43111  97.4796 222.9508 0000331 275.9146  84.2051 15.19176919466581
GAOFEN-1 02             
1 43259U 18031A   26163.28345472  .00000638  00000+0  99139-4 0  9990
2 43259  98.0531 225.8242 0004088  45.9387 314.2159 14.76450196441975
GAOFEN-1 03             
1 43260U 18031B   26163.26164359  .00000673  00000+0  10411-3 0  9997
2 43260  98.0524 225.6613 0003814  88.8988 271.2658 14.76462453441962
GAOFEN-1 04             
1 43262U 18031D   26163.30511130  .00000220  00000+0  39018-4 0  9990
2 43262  98.0532 225.8946 0002241  86.5160 273.6306 14.76471221441963
SENTINEL-3B             
1 43437U 18039A   26162.43904625  .00000076  00000+0  49397-4 0  9990
2 43437  98.6248 230.0537 0000809  80.8461 279.2811 14.26740095423304
GAOFEN-5 01             
1 43461U 18043A   26163.19785884  .00000295  00000+0  70862-4 0  9994
2 43461  98.4567 134.6794 0003035  92.1360 268.0187 14.60602117430967
GAOFEN-6                
1 43484U 18048A   26163.25986575 -.00000161  00000+0 -15833-4 0  9992
2 43484  97.8549 226.1360 0011554 183.2269 176.8869 14.76591188432660
